[{"OBJECT_NAME":"KUIPER-00096","OBJECT_ID":"2025-171D","EPOCH":"2026-03-05T06:54:37.980576","MEAN_MOTION":14.79929779,"ECCENTRICITY":3.726e-5,"INCLINATION":51.8993,"RA_OF_ASC_NODE":177.5468,"ARG_OF_PERICENTER":123.6095,"MEAN_ANOMALY":236.4903,"EPHEMERIS_TYPE":0,"CLASSIFICATION_TYPE":"U","NORAD_CAT_ID":65135,"ELEMENT_SET_NO":999,"REV_AT_EPOCH":3224,"BSTAR":0.00033569546,"MEAN_MOTION_DOT":2.339e-5,"MEAN_MOTION_DDOT":0},{"OBJECT_NAME":"KUIPER-00097","OBJECT_ID":"2025-171E","EPOCH":"2026-03-05T00:21:47.002176","MEAN_MOTION":14.79938842,"ECCENTRICITY":2.419e-5,"INCLINATION":51.8983,"RA_OF_ASC_NODE":181.3779,"ARG_OF_PERICENTER":43.4431,"MEAN_ANOMALY":316.6551,"EPHEMERIS_TYPE":0,"CLASSIFICATION_TYPE":"U","NORAD_CAT_ID":65136,"ELEMENT_SET_NO":999,"REV_AT_EPOCH":3215,"BSTAR":0.00064327484,"MEAN_MOTION_DOT":4.687e-5,"MEAN_MOTION_DDOT":0},{"OBJECT_NAME":"KUIPER-00098","OBJECT_ID":"2025-171F","EPOCH":"2026-03-05T00:17:51.347904","MEAN_MOTION":14.79973758,"ECCENTRICITY":0.0001761,"INCLINATION":51.9009,"RA_OF_ASC_NODE":183.7692,"ARG_OF_PERICENTER":144.8493,"MEAN_ANOMALY":215.2586,"EPHEMERIS_TYPE":0,"CLASSIFICATION_TYPE":"U","NORAD_CAT_ID":65137,"ELEMENT_SET_NO":999,"REV_AT_EPOCH":3147,"BSTAR":0.00091956632,"MEAN_MOTION_DOT":6.803e-5,"MEAN_MOTION_DDOT":0},{"OBJECT_NAME":"KUIPER-00099","OBJECT_ID":"2025-171G","EPOCH":"2026-03-05T06:15:00.272448","MEAN_MOTION":14.79872918,"ECCENTRICITY":4.879e-5,"INCLINATION":51.9025,"RA_OF_ASC_NODE":172.6663,"ARG_OF_PERICENTER":50.3142,"MEAN_ANOMALY":309.7864,"EPHEMERIS_TYPE":0,"CLASSIFICATION_TYPE":"U","NORAD_CAT_ID":65138,"ELEMENT_SET_NO":999,"REV_AT_EPOCH":3230,"BSTAR":0.00094257056,"MEAN_MOTION_DOT":6.962e-5,"MEAN_MOTION_DDOT":0},{"OBJECT_NAME":"KUIPER-00100","OBJECT_ID":"2025-171H","EPOCH":"2026-03-04T11:39:21.788640","MEAN_MOTION":14.79946434,"ECCENTRICITY":4.889e-5,"INCLINATION":51.9016,"RA_OF_ASC_NODE":173.563,"ARG_OF_PERICENTER":96.6064,"MEAN_ANOMALY":263.4954,"EPHEMERIS_TYPE":0,"CLASSIFICATION_TYPE":"U","NORAD_CAT_ID":65139,"ELEMENT_SET_NO":999,"REV_AT_EPOCH":3222,"BSTAR":0.00062281469,"MEAN_MOTION_DOT":4.532e-5,"MEAN_MOTION_DDOT":0},{"OBJECT_NAME":"KUIPER-00102","OBJECT_ID":"2025-171J","EPOCH":"2026-03-05T07:02:15.953280","MEAN_MOTION":14.79992479,"ECCENTRICITY":6.062e-5,"INCLINATION":51.8989,"RA_OF_ASC_NODE":172.518,"ARG_OF_PERICENTER":97.5876,"MEAN_ANOMALY":262.5156,"EPHEMERIS_TYPE":0,"CLASSIFICATION_TYPE":"U","NORAD_CAT_ID":65140,"ELEMENT_SET_NO":999,"REV_AT_EPOCH":3230,"BSTAR":0.00091864214,"MEAN_MOTION_DOT":6.799e-5,"MEAN_MOTION_DDOT":0},{"OBJECT_NAME":"KUIPER-00103","OBJECT_ID":"2025-171K","EPOCH":"2026-03-05T07:23:48.867936","MEAN_MOTION":14.79981245,"ECCENTRICITY":0.0004301,"INCLINATION":51.8966,"RA_OF_ASC_NODE":189.9427,"ARG_OF_PERICENTER":104.9471,"MEAN_ANOMALY":255.1968,"EPHEMERIS_TYPE":0,"CLASSIFICATION_TYPE":"U","NORAD_CAT_ID":65141,"ELEMENT_SET_NO":999,"REV_AT_EPOCH":3206,"BSTAR":0.00036131133,"MEAN_MOTION_DOT":2.537e-5,"MEAN_MOTION_DDOT":0},{"OBJECT_NAME":"KUIPER-00104","OBJECT_ID":"2025-171L","EPOCH":"2026-03-05T01:14:11.404896","MEAN_MOTION":14.79905058,"ECCENTRICITY":6.836e-5,"INCLINATION":51.9023,"RA_OF_ASC_NODE":178.5415,"ARG_OF_PERICENTER":61.043,"MEAN_ANOMALY":299.0601,"EPHEMERIS_TYPE":0,"CLASSIFICATION_TYPE":"U","NORAD_CAT_ID":65142,"ELEMENT_SET_NO":999,"REV_AT_EPOCH":3220,"BSTAR":0.00095552126,"MEAN_MOTION_DOT":7.066e-5,"MEAN_MOTION_DDOT":0},{"OBJECT_NAME":"KUIPER-00105","OBJECT_ID":"2025-171M","EPOCH":"2026-03-05T01:50:48.673536","MEAN_MOTION":14.79837621,"ECCENTRICITY":0.00012689,"INCLINATION":51.8997,"RA_OF_ASC_NODE":186.047,"ARG_OF_PERICENTER":94.1144,"MEAN_ANOMALY":265.9964,"EPHEMERIS_TYPE":0,"CLASSIFICATION_TYPE":"U","NORAD_CAT_ID":65143,"ELEMENT_SET_NO":999,"REV_AT_EPOCH":3210,"BSTAR":-0.00028848905,"MEAN_MOTION_DOT":-2.415e-5,"MEAN_MOTION_DDOT":0},{"OBJECT_NAME":"KUIPER-00106","OBJECT_ID":"2025-171N","EPOCH":"2026-03-05T07:18:41.180256","MEAN_MOTION":14.97161789,"ECCENTRICITY":0.00079473,"INCLINATION":51.8939,"RA_OF_ASC_NODE":174.8978,"ARG_OF_PERICENTER":85.2705,"MEAN_ANOMALY":274.9172,"EPHEMERIS_TYPE":0,"CLASSIFICATION_TYPE":"U","NORAD_CAT_ID":65144,"ELEMENT_SET_NO":999,"REV_AT_EPOCH":3228,"BSTAR":0.00082932243,"MEAN_MOTION_DOT":9.445e-5,"MEAN_MOTION_DDOT":0},{"OBJECT_NAME":"KUIPER-00107","OBJECT_ID":"2025-171P","EPOCH":"2026-03-05T07:10:12.656640","MEAN_MOTION":14.8000155,"ECCENTRICITY":3.266e-5,"INCLINATION":51.901,"RA_OF_ASC_NODE":167.5096,"ARG_OF_PERICENTER":26.6049,"MEAN_ANOMALY":333.493,"EPHEMERIS_TYPE":0,"CLASSIFICATION_TYPE":"U","NORAD_CAT_ID":65145,"ELEMENT_SET_NO":999,"REV_AT_EPOCH":3238,"BSTAR":0.0010164786,"MEAN_MOTION_DOT":7.549e-5,"MEAN_MOTION_DDOT":0},{"OBJECT_NAME":"KUIPER-00108","OBJECT_ID":"2025-171Q","EPOCH":"2026-03-05T01:10:24.640320","MEAN_MOTION":14.79940842,"ECCENTRICITY":0.00011542,"INCLINATION":51.9071,"RA_OF_ASC_NODE":181.1289,"ARG_OF_PERICENTER":159.7424,"MEAN_ANOMALY":200.3585,"EPHEMERIS_TYPE":0,"CLASSIFICATION_TYPE":"U","NORAD_CAT_ID":65146,"ELEMENT_SET_NO":999,"REV_AT_EPOCH":3217,"BSTAR":0.00031126589,"MEAN_MOTION_DOT":2.153e-5,"MEAN_MOTION_DDOT":0},{"OBJECT_NAME":"KUIPER-00109","OBJECT_ID":"2025-171R","EPOCH":"2026-03-05T06:58:30.824256","MEAN_MOTION":14.79937785,"ECCENTRICITY":6.29e-5,"INCLINATION":51.9016,"RA_OF_ASC_NODE":175.0029,"ARG_OF_PERICENTER":115.1862,"MEAN_ANOMALY":244.9166,"EPHEMERIS_TYPE":0,"CLASSIFICATION_TYPE":"U","NORAD_CAT_ID":65147,"ELEMENT_SET_NO":999,"REV_AT_EPOCH":3227,"BSTAR":0.0004992287,"MEAN_MOTION_DOT":3.587e-5,"MEAN_MOTION_DDOT":0},{"OBJECT_NAME":"KUIPER-00110","OBJECT_ID":"2025-171S","EPOCH":"2026-03-05T07:29:17.525760","MEAN_MOTION":14.79930426,"ECCENTRICITY":0.0001988,"INCLINATION":51.8995,"RA_OF_ASC_NODE":187.5058,"ARG_OF_PERICENTER":176.7881,"MEAN_ANOMALY":183.3094,"EPHEMERIS_TYPE":0,"CLASSIFICATION_TYPE":"U","NORAD_CAT_ID":65148,"ELEMENT_SET_NO":999,"REV_AT_EPOCH":3209,"BSTAR":0.00092916642,"MEAN_MOTION_DOT":6.869e-5,"MEAN_MOTION_DDOT":0},{"OBJECT_NAME":"KUIPER-00111","OBJECT_ID":"2025-171T","EPOCH":"2026-03-04T17:33:07.002720","MEAN_MOTION":14.80014532,"ECCENTRICITY":0.00018416,"INCLINATION":51.8983,"RA_OF_ASC_NODE":194.9729,"ARG_OF_PERICENTER":138.4936,"MEAN_ANOMALY":221.6167,"EPHEMERIS_TYPE":0,"CLASSIFICATION_TYPE":"U","NORAD_CAT_ID":65149,"ELEMENT_SET_NO":999,"REV_AT_EPOCH":3194,"BSTAR":0.0010097938,"MEAN_MOTION_DOT":7.5e-5,"MEAN_MOTION_DDOT":0},{"OBJECT_NAME":"KUIPER-00112","OBJECT_ID":"2025-171U","EPOCH":"2026-03-05T07:47:10.013280","MEAN_MOTION":14.80000607,"ECCENTRICITY":3.054e-5,"INCLINATION":51.9028,"RA_OF_ASC_NODE":174.9082,"ARG_OF_PERICENTER":97.1645,"MEAN_ANOMALY":262.9353,"EPHEMERIS_TYPE":0,"CLASSIFICATION_TYPE":"U","NORAD_CAT_ID":65150,"ELEMENT_SET_NO":999,"REV_AT_EPOCH":3227,"BSTAR":0.00094007128,"MEAN_MOTION_DOT":6.964e-5,"MEAN_MOTION_DDOT":0}]
