KUIPER-00096            
1 65135U 25171D   26064.28793959  .00002339  00000+0  33570-3 0  9993
2 65135  51.8993 177.5468 0000372 123.6095 236.4903 14.79929779 32245
KUIPER-00097            
1 65136U 25171E   26064.01512734  .00004687  00000+0  64327-3 0  9997
2 65136  51.8983 181.3779 0000241  43.4431 316.6551 14.79938842 32152
KUIPER-00098            
1 65137U 25171F   26064.01239986  .00006803  00000+0  91957-3 0  9994
2 65137  51.9009 183.7692 0001761 144.8493 215.2586 14.79973758 31476
KUIPER-00099            
1 65138U 25171G   26064.26041982  .00006962  00000+0  94257-3 0  9991
2 65138  51.9025 172.6663 0000487  50.3142 309.7864 14.79872918 32303
KUIPER-00100            
1 65139U 25171H   26063.48566885  .00004532  00000+0  62281-3 0  9992
2 65139  51.9016 173.5630 0000488  96.6064 263.4954 14.79946434 32227
KUIPER-00102            
1 65140U 25171J   26064.29324020  .00006799  00000+0  91864-3 0  9993
2 65140  51.8989 172.5180 0000606  97.5876 262.5156 14.79992479 32302
KUIPER-00103            
1 65141U 25171K   26064.30820449  .00002537  00000+0  36131-3 0  9994
2 65141  51.8966 189.9427 0004301 104.9471 255.1968 14.79981245 32065
KUIPER-00104            
1 65142U 25171L   26064.05152089  .00007066  00000+0  95552-3 0  9999
2 65142  51.9023 178.5415 0000683  61.0430 299.0601 14.79905058 32204
KUIPER-00105            
1 65143U 25171M   26064.07695224 -.00002415  00000+0 -28849-3 0  9995
2 65143  51.8997 186.0470 0001268  94.1144 265.9964 14.79837621 32101
KUIPER-00106            
1 65144U 25171N   26064.30464329  .00009445  00000+0  82932-3 0  9993
2 65144  51.8939 174.8978 0007947  85.2705 274.9172 14.97161789 32285
KUIPER-00107            
1 65145U 25171P   26064.29875760  .00007549  00000+0  10165-2 0  9998
2 65145  51.9010 167.5096 0000326  26.6049 333.4930 14.80001550 32386
KUIPER-00108            
1 65146U 25171Q   26064.04889630  .00002153  00000+0  31127-3 0  9991
2 65146  51.9071 181.1289 0001154 159.7424 200.3585 14.79940842 32174
KUIPER-00109            
1 65147U 25171R   26064.29063454  .00003587  00000+0  49923-3 0  9992
2 65147  51.9016 175.0029 0000629 115.1862 244.9166 14.79937785 32278
KUIPER-00110            
1 65148U 25171S   26064.31200840  .00006869  00000+0  92917-3 0  9995
2 65148  51.8995 187.5058 0001988 176.7881 183.3094 14.79930426 32098
KUIPER-00111            
1 65149U 25171T   26063.73133105  .00007500  00000+0  10098-2 0  9992
2 65149  51.8983 194.9729 0001841 138.4936 221.6167 14.80014532 31940
KUIPER-00112            
1 65150U 25171U   26064.32442145  .00006964  00000+0  94007-3 0  9993
2 65150  51.9028 174.9082 0000305  97.1645 262.9353 14.80000607 32275
